BNU-1 (JINGSHI 1)       
1 44529U 19059B   22254.48381634  .00000381  00000+0  12108-3 0  9996
2 44529  98.5229 349.8775 0013416 205.3270 154.7270 14.45395341158209
TAURUS-1 (JINNIUZUO 1)  
1 44530U 19059C   22254.49900209  .00001991  00000+0  55532-3 0  9990
2 44530  98.5492 353.8637 0013142 213.9985 146.0394 14.47342400158299
SEEKER                  
1 44533U 19022K   22254.46534777  .00012691  00000+0  33823-3 0  9991
2 44533  51.6359  51.2861 0009797   1.4871 358.6140 15.38486723167329
ZHUHAI-1 03A            
1 44534U 19060A   22254.87379956  .00009031  00000+0  38483-3 0  9996
2 44534  97.4646   4.1691 0016364 109.7386  38.2985 15.23061834165261
ZHUHAI-1 03B            
1 44536U 19060C   22254.86483243  .00008644  00000+0  36891-3 0  9992
2 44536  97.4667   4.3487 0012731 106.3969  46.3233 15.23073499165272
ZHUHAI-1 03C            
1 44537U 19060D   22254.91149917  .00008640  00000+0  36906-3 0  9999
2 44537  97.4585   3.4714 0011354 127.0603 352.7033 15.23058193165287
ZHUHAI-1 03D            
1 44538U 19060E   22254.89850244  .00008693  00000+0  37181-3 0  9993
2 44538  97.4554   3.1466 0010642 120.6848  19.6587 15.23020558165281
ZHUHAI-1 03E            
1 44539U 19060F   22254.88785413  .00008686  00000+0  37178-3 0  9996
2 44539  97.4677   4.6376 0010313 138.5753   9.4557 15.22999083165283
BEIDOU-3 M23            
1 44542U 19061A   22254.10795227  .00000000  00000+0  00000+0 0  9992
2 44542  54.5649 229.2026 0008822 329.4379  30.4709  1.86231460 20189
BEIDOU-3 M24            
1 44543U 19061B   22254.21476208  .00000000  00000+0  00000+0 0  9990
2 44543  54.5619 229.1686 0006481 310.6204  32.3226  1.86231880 20176
YUNHAI 1-02             
1 44547U 19063A   22254.53267675  .00000196  00000+0  87807-4 0  9998
2 44547  98.4966 278.1460 0000527 343.0803  17.0364 14.32730213155009
COSMOS 2541             
1 44552U 19065A   22254.53048354 -.00001076  00000+0  00000+0 0  9991
2 44552  63.1578 295.9308 6945035 270.8512  45.5759  2.00689325 21682
GAOFEN 10R              
1 44622U 19066A   22254.43849495  .00000959  00000+0  13080-3 0  9998
2 44622  97.8951 192.3999 0003112  86.9327 273.2235 14.80902793158734
EUTELSAT 5 WEST B       
1 44624U 19067A   22254.14152345 -.00000062  00000+0  00000+0 0  9990
2 44624   0.0882 322.8817 0006559 176.9121 256.2846  1.00271859 10651
MEV-1                   
1 44625U 19067B   22253.95300094 -.00000223  00000+0  00000+0 0  9994
2 44625   0.0233 242.4058 0001213 300.6174 122.5125  1.00270187 77798
ICON                    
1 44628U 19068A   22253.92692349  .00002239  00000+0  19005-3 0  9999
2 44628  26.9891 109.8964 0018231 196.2936 163.7037 14.93118374159350
PALISADE                
1 44634U 19069A   22254.35482203  .00000450  00000+0  12265-2 0  9994
2 44634  87.9054 192.9431 0010047 147.8230 212.3514 13.11839639138859
TJS-4                   
1 44637U 19070A   22254.53319056 -.00000188  00000+0  00000+0 0  9994
2 44637   0.0225 134.4646 0002705 233.5616 257.9163  1.00268933 10762
GAOFEN 7                
1 44703U 19072A   22254.64440084  .00003538  00000+0  16129-3 0  9992
2 44703  97.4022 331.8061 0008544 193.4110 304.0106 15.21264987158650
SRSS-1                  
1 44704U 19072B   22254.61619902  .00012879  00000+0  45054-3 0  9994
2 44704  97.4159 338.9982 0013591 200.2314 299.0228 15.29569289159068
HUANGPU-1               
1 44705U 19072C   22254.63982279  .00013185  00000+0  43414-3 0  9996
2 44705  97.4016 337.9079 0012981 198.4894 297.6505 15.31537264159108
XIAOXIANG 1-08          
1 44706U 19072D   22254.90773868  .00026022  00000+0  71282-3 0  9997
2 44706  97.4165 341.5776 0011583 188.5028 283.0983 15.37230645159260
BEIDOU-3 IGSO-3         
1 44709U 19073A   22253.68186704 -.00000158  00000+0  10000-3 0  9996
2 44709  57.1251 295.4996 0027561 181.4671 238.0242  1.00283172 10657
STARLINK-1007           
1 44713U 19074A   22254.14047961 -.00000765  00000+0 -32461-4 0  9996
2 44713  53.0561 152.7791 0001501  80.2434 279.8725 15.06393581156666
STARLINK-1008           
1 44714U 19074B   22254.11929808  .00000382  00000+0  44498-4 0  9999
2 44714  53.0540 152.8799 0001541  86.6856 273.4309 15.06411118156491
STARLINK-1009           
1 44715U 19074C   22254.77167269  .00006612  00000+0  46188-3 0  9996
2 44715  53.0537 149.9598 0001860  66.0385 294.0799 15.06436846156751
STARLINK-1010           
1 44716U 19074D   22254.85649842  .00007359  00000+0  51260-3 0  9994
2 44716  53.0531 149.5772 0001879  87.3988 272.7216 15.06385250156750
STARLINK-1011           
1 44717U 19074E   22254.78830321 -.00001451  00000+0 -78541-4 0  9992
2 44717  53.0545 169.8672 0001509  66.5944 293.5203 15.06393370156480
STARLINK-1012           
1 44718U 19074F   22254.09719408 -.00000260  00000+0  14702-5 0  9995
2 44718  53.0543 152.9876 0001415  76.5673 283.5473 15.06396725156489
STARLINK-1013           
1 44719U 19074G   22254.10456217 -.00000591  00000+0 -20765-4 0  9997
2 44719  53.0541 152.9523 0001446  75.6711 284.4438 15.06393652157617
STARLINK-1014           
1 44720U 19074H   22254.85185792  .00001500  00000+0  11959-3 0  9991
2 44720  53.0553 149.5761 0001609  67.2387 292.8772 15.06396330156771
STARLINK-1015           
1 44721U 19074J   22254.24462805 -.00000676  00000+0 -26473-4 0  9991
2 44721  53.0550 152.3228 0001399  73.5334 286.5809 15.06406758156505
STARLINK-1016           
1 44722U 19074K   22254.11467271 -.00000432  00000+0 -10113-4 0  9994
2 44722  53.0544 152.8927 0001478  77.4101 282.7053 15.06409340156669
STARLINK-1017           
1 44723U 19074L   22254.13035981  .00000813  00000+0  73491-4 0  9995
2 44723  53.0526 152.8349 0001579  69.5244 290.5914 15.06400613156667
STARLINK-1019           
1 44724U 19074M   22254.15984660  .00000808  00000+0  73132-4 0  9991
2 44724  53.0540 152.7095 0001505  75.2039 284.9117 15.06409125156496
STARLINK-1020           
1 44725U 19074N   22254.76249259  .00001158  00000+0  96631-4 0  9995
2 44725  53.0556 169.9881 0001195  83.5262 276.5863 15.06403163156471
STARLINK-1021           
1 44726U 19074P   22254.75328389  .00000984  00000+0  84969-4 0  9994
2 44726  53.0543 150.0226 0001482  73.6654 286.4498 15.06392421156755
STARLINK-1022           
1 44727U 19074Q   22254.85554400  .00002126  00000+0  16162-3 0  9990
2 44727  53.0551 189.5810 0001382  75.8665 284.2477 15.06395744156222
STARLINK-1024           
1 44729U 19074S   22254.11933953  .00026112  00000+0  13468-2 0  9991
2 44729  53.0019 156.9050 0001227  89.1247 270.9886 15.16197429156563
STARLINK-1026           
1 44731U 19074U   22254.10087350  .00001310  00000+0  10680-3 0  9991
2 44731  53.0553 152.9711 0001505  76.8959 283.2198 15.06403264156481
STARLINK-1027           
1 44732U 19074V   22254.15431828  .00000901  00000+0  79346-4 0  9990
2 44732  53.0547 172.7190 0001658  79.7218 280.3958 15.06405931156211
STARLINK-1028           
1 44733U 19074W   22254.21882305 -.00000336  00000+0 -36329-5 0  9997
2 44733  53.0530 152.4229 0001402  74.2180 285.8963 15.06394779156502
STARLINK-1029           
1 44734U 19074X   22254.49895713  .00000184  00000+0  31262-4 0  9994
2 44734  53.0556  71.1804 0001657  78.2646 281.8529 15.06396508157642
STARLINK-1030           
1 44735U 19074Y   22254.29438727  .00000247  00000+0  35479-4 0  9995
2 44735  53.0543 172.0996 0001562  63.8036 296.3113 15.06394119156409
STARLINK-1031           
1 44736U 19074Z   22254.77355717  .00000669  00000+0  63819-4 0  9993
2 44736  53.0549 169.9505 0001640  71.0787 289.0379 15.06400415156486
STARLINK-1032           
1 44737U 19074AA  22254.18749787 -.00000827  00000+0 -36635-4 0  9997
2 44737  53.0540 172.5741 0001460  75.5869 284.5282 15.06391823156227
STARLINK-1033           
1 44738U 19074AB  22254.76986893  .00000993  00000+0  85579-4 0  9996
2 44738  53.0550 169.9683 0001491  69.7843 290.3307 15.06399079156476
STARLINK-1052           
1 44739U 19074AC  22254.12170616  .00024183  00000+0  12016-2 0  9996
2 44739  52.9943 156.1458 0001252 115.2367 244.8756 15.17551914156553
STARLINK-1035           
1 44740U 19074AD  22254.18380719 -.00000375  00000+0 -62913-5 0  9994
2 44740  53.0539 172.5969 0001706  62.6454 297.4708 15.06399759156223
STARLINK-1036           
1 44741U 19074AE  22254.79199135  .00000308  00000+0  39573-4 0  9991
2 44741  53.0548 169.8606 0001408  77.5578 282.5568 15.06394067156486
STARLINK-1038           
1 44743U 19074AG  22254.24462425 -.00001388  00000+0 -74316-4 0  9993
2 44743  53.0550 192.3222 0001547  81.0296 279.0868 15.06404823156045
STARLINK-1039           
1 44744U 19074AH  22254.32202642  .00000018  00000+0  20094-4 0  9997
2 44744  53.0548 191.9746 0001233  72.2214 287.8909 15.06397089155961
STARLINK-1041           
1 44746U 19074AK  22254.63901985  .00000001  00000+0  18970-4 0  9991
2 44746  53.0552 190.5546 0001717  65.2955 294.8212 15.06400529156186
STARLINK-1042           
1 44747U 19074AL  22254.07138283  .00000632  00000+0  61317-4 0  9996
2 44747  53.0533 193.1025 0001543  84.9372 275.1793 15.06402801155938
STARLINK-1043           
1 44748U 19074AM  22254.83068855  .00001151  00000+0  96151-4 0  9999
2 44748  53.0546 189.6906 0001541  61.6591 298.4554 15.06397763156219
STARLINK-1046           
1 44751U 19074AQ  22254.84543007  .00000480  00000+0  51113-4 0  9994
2 44751  53.0547 189.6315 0001798  46.5012 313.6127 15.06401185156212
STARLINK-1047           
1 44752U 19074AR  22254.79935847  .00001147  00000+0  95892-4 0  9999
2 44752  53.0550 169.8364 0001507  73.5175 286.5979 15.06397953156488
STARLINK-1048           
1 44753U 19074AS  22254.00872054  .00000056  00000+0  22659-4 0  9993
2 44753  53.0539 153.3810 0001538  76.5602 283.5558 15.06410362156471
STARLINK-1049           
1 44754U 19074AT  22254.14510583  .00000984  00000+0  84952-4 0  9999
2 44754  53.0544 152.7696 0001695  70.0198 290.0973 15.06405055156495
